STARLINK-4448           
1 53504U 22099AR  26068.87393905  .00000522  00000+0  45143-4 0  9994
2 53504  97.6025 190.4028 0002044  87.4619 272.6839 15.01260365196010
LEMUR-2-ARIANNA         
1 62699U 25009CU  26068.74082662  .00009084  00000+0  71790-3 0  9992
2 62699  97.6996 151.0445 0004640 147.3928 212.7583 15.00881954 62634
