[{"OBJECT_NAME":"STARLINK-4448","OBJECT_ID":"2022-099AR","EPOCH":"2026-03-09T20:58:28.334784","MEAN_MOTION":15.01260365,"ECCENTRICITY":0.00020442,"INCLINATION":97.6025,"RA_OF_ASC_NODE":190.4028,"ARG_OF_PERICENTER":87.4619,"MEAN_ANOMALY":272.6839,"EPHEMERIS_TYPE":0,"CLASSIFICATION_TYPE":"U","NORAD_CAT_ID":53504,"ELEMENT_SET_NO":999,"REV_AT_EPOCH":19601,"BSTAR":4.5143087e-5,"MEAN_MOTION_DOT":5.22e-6,"MEAN_MOTION_DDOT":0},{"OBJECT_NAME":"LEMUR-2-ARIANNA","OBJECT_ID":"2025-009CU","EPOCH":"2026-03-09T17:46:47.419968","MEAN_MOTION":15.00881954,"ECCENTRICITY":0.00046401,"INCLINATION":97.6996,"RA_OF_ASC_NODE":151.0445,"ARG_OF_PERICENTER":147.3928,"MEAN_ANOMALY":212.7583,"EPHEMERIS_TYPE":0,"CLASSIFICATION_TYPE":"U","NORAD_CAT_ID":62699,"ELEMENT_SET_NO":999,"REV_AT_EPOCH":6263,"BSTAR":0.00071790312,"MEAN_MOTION_DOT":9.084e-5,"MEAN_MOTION_DDOT":0}]
